IRIDIUM 155             
1 43573U 18061E   20360.54535301  .00000006  00000-0 -50496-5 0  9991
2 43573  86.3983 172.3927 0002379  83.0989 277.0477 14.34216696126746
IRIDIUM 154             
1 43574U 18061F   20360.52630810  .00000004  00000-0 -55906-5 0  9990
2 43574  86.3987 172.4392 0001882 100.0701 260.0707 14.34217426126793
IRIDIUM 163             
1 43575U 18061G   20360.57705084  .00000003  00000-0 -59787-5 0  9992
2 43575  86.3985 172.3942 0001367  84.4297 275.7055 14.34217420126776
IRIDIUM 156             
1 43576U 18061H   20360.55169061  .00000003  00000-0 -59430-5 0  9995
2 43576  86.3984 172.4096 0001869  80.4736 279.6671 14.34217239126762
IRIDIUM 164             
1 43577U 18061J   20360.53264871  .00000004  00000-0 -55865-5 0  9998
2 43577  86.3986 172.4275 0001751  97.1879 262.9516 14.34218088126808
IRIDIUM 159             
1 43578U 18061K   20360.57071355  .00000003  00000-0 -60529-5 0  9998
2 43578  86.3985 172.3904 0001854  97.0726 263.0681 14.34217143126772
IRIDIUM 180             
1 43922U 19002A   20360.57021903  .00000088  00000-0  24303-4 0  9992
2 43922  86.3977 109.2694 0001703 127.8030 232.3320 14.34218646102383
IRIDIUM 176             
1 43923U 19002B   20360.54905957  .00000222  00000-0  31298-4 0  9991
2 43923  86.6112 109.3096 0002329 101.4631 258.6848 14.72252636105046
IRIDIUM 168             
1 43924U 19002C   20360.56388169  .00000091  00000-0  25452-4 0  9993
2 43924  86.3979 109.2928 0002057 105.0494 255.0930 14.34218535102366
IRIDIUM 173             
1 43925U 19002D   20360.55119922  .00000089  00000-0  24671-4 0  9991
2 43925  86.3976 109.2683 0002005 101.7082 258.4339 14.34217929102345
IRIDIUM 169             
1 43926U 19002E   20360.45434867  .00000123  00000-0  33644-4 0  9998
2 43926  86.4235 140.8990 0007135  87.0933 273.1082 14.38608772102722
IRIDIUM 172             
1 43927U 19002F   20360.54485126  .00000094  00000-0  26574-4 0  9994
2 43927  86.3977 109.2727 0001976 104.7220 255.4195 14.34218893102359
IRIDIUM 175             
1 43928U 19002G   20360.33896932  .00000218  00000-0  30684-4 0  9998
2 43928  86.6095 109.2516 0001864  79.1558 280.9869 14.72252434105002
IRIDIUM 171             
1 43929U 19002H   20360.59559241  .00000089  00000-0  24655-4 0  9993
2 43929  86.3986 109.3357 0002103 104.6701 255.4728 14.34218242102357
IRIDIUM 170             
1 43930U 19002J   20360.55524689  .00000200  00000-0  27765-4 0  9999
2 43930  86.6112 109.3138 0002018  95.3800 264.7647 14.72248628105057
IRIDIUM 167             
1 43931U 19002K   20360.58923440  .00000091  00000-0  25293-4 0  9993
2 43931  86.3977 109.2590 0001839 121.4763 238.6612 14.34222574102356
